ALOS-4 (DAICHI-4)       
1 60182U 24123A   24267.53534444  .00005743  00000+0  77522-3 0  9996
2 60182  97.9209   2.7794 0001477  97.7444 262.3936 14.79475064 12481
